API VERSION: 1.2
API SOURCE: NASA/JPL Horizons API

*******************************************************************************
JPL/HORIZONS                  1 Ceres (A801 AA)            2024-Sep-02 16:04:00
Rec #:       1 (+COV) Soln.date: 2021-Apr-13_11:04:44   # obs: 1075 (1995-2021)
 
IAU76/J2000 helio. ecliptic osc. elements (au, days, deg., period=Julian yrs):
 
  EPOCH=  2458849.5 ! 2020-Jan-01.00 (TDB)         Residual RMS= .24563
   EC= .07687465013145245  QR= 2.556401146697176   TP= 2458240.1791309435
   OM= 80.3011901917491    W=  73.80896808746482   IN= 10.59127767086216
   A= 2.769289292143484    MA= 130.3159688200986   ADIST= 2.982177437589792
   PER= 4.60851            N= .213870844           ANGMOM= .028541613
   DAN= 2.69515            DDN= 2.81323            L= 153.8445987
   B= 10.1666387           MOID= 1.59231997        TP= 2018-May-01.6791309435
 
Asteroid physical parameters (km, seconds, rotational period in hours):
   GM= 62.6284             RAD= 469.7              ROTPER= 9.07417
   H= 3.34                 G= .120                 B-V= .713
                           ALBEDO= .090            STYP= C

ASTEROID comments: 
1: soln ref.= JPL#48, OCC=0           radar(60 delay, 0 Dop.)
2: source=ORB
*******************************************************************************


*******************************************************************************
Ephemeris / API_USER Mon Sep  2 16:04:00 2024 Pasadena, USA      / Horizons    
*******************************************************************************
Target body name: 1 Ceres (A801 AA)               {source: JPL#48}
Center body name: Earth (399)                     {source: DE441}
Center-site name: GEOCENTRIC
*******************************************************************************
Start time      : A.D. 2024-Aug-16 00:00:00.0000 UT      
Stop  time      : A.D. 2024-Oct-15 00:00:00.0000 UT      
Step-size       : 1440 minutes
*******************************************************************************
Target pole/equ : IAU                             {East-longitude positive}
Target radii    : 487.3, 487.3, 446.0 km          {Equator_a, b, pole_c}       
Center geodetic : 0.0, 0.0, -6378.137             {E-lon(deg),Lat(deg),Alt(km)}
Center cylindric: 0.0, 0.0, 0.0                   {E-lon(deg),Dxy(km),Dz(km)}
Center pole/equ : ITRF93                          {East-longitude positive}
Center radii    : 6378.137, 6378.137, 6356.752 km {Equator_a, b, pole_c}       
Target primary  : Sun
Vis. interferer : MOON (R_eq= 1737.400) km        {source: DE441}
Rel. light bend : Sun                             {source: DE441}
Rel. lght bnd GM: 1.3271E+11 km^3/s^2                                          
Small-body perts: Yes                             {source: SB441-N16}
Atmos refraction: NO (AIRLESS)
RA format       : DEG
Time format     : BOTH
Calendar mode   : Mixed Julian/Gregorian
EOP file        : eop.240902.p241126                                           
EOP coverage    : DATA-BASED 1962-JAN-20 TO 2024-SEP-02. PREDICTS-> 2024-NOV-25
Units conversion: 1 au= 149597870.700 km, c= 299792.458 km/s, 1 day= 86400.0 s 
Table cut-offs 1: Elevation (-90.0deg=NO ),Airmass (>38.000=NO), Daylight (NO )
Table cut-offs 2: Solar elongation (  0.0,180.0=NO ),Local Hour Angle( 0.0=NO )
Table cut-offs 3: RA/DEC angular rate (     0.0=NO )                           
Table format    : Comma Separated Values (spreadsheet)
*******************************************************************************
Initial IAU76/J2000 heliocentric ecliptic osculating elements (au, days, deg.):
  EPOCH=  2458849.5 ! 2020-Jan-01.00 (TDB)         Residual RMS= .24563        
   EC= .07687465013145245  QR= 2.556401146697176   TP= 2458240.1791309435      
   OM= 80.3011901917491    W=  73.80896808746482   IN= 10.59127767086216       
  Equivalent ICRF heliocentric cartesian coordinates (au, au/d):
   X= 1.007608869613381E+00  Y=-2.390064275223502E+00  Z=-1.332124522752402E+00
  VX= 9.201724467227128E-03 VY= 3.370381135398406E-03 VZ=-2.850337057661093E-04
Asteroid physical parameters (km, seconds, rotational period in hours):        
   GM= 62.6284             RAD= 469.7              ROTPER= 9.07417             
   H= 3.34                 G= .120                 B-V= .713                   
                           ALBEDO= .090            STYP= C                     
********************************************************************************************************************************************************************************************************************************************
 Date__(UT)__HR:MN, Date_________JDUT, , , R.A._(ICRF), DEC_(ICRF),  dRA*cosD, d(DEC)/dt,    APmag,  S-brt,                r,       rdot,             delta,     deldot,     S-O-T,/r,     S-T-O,    PsAng,   PsAMV,      GlxLon,    GlxLat,
********************************************************************************************************************************************************************************************************************************************
$$SOE
 2024-Sep-06 00:00, 2460559.500000000, , ,   278.64093,  -30.88541,  9.086753,  1.481480,    8.544,  7.010,   2.934396018874,  0.8595051,  2.38045867844869, 22.6348850,  113.6940,/T,   18.3305,   83.155, 277.858,    3.360992,-10.248695,
 2024-Sep-07 00:00, 2460560.500000000, , ,   278.71472,  -30.87537,  9.904472,  1.583023,    8.560,  7.014,   2.934891303924,  0.8557528,  2.39357441445142, 22.7820065,  112.7979,/T,   18.4505,   83.272, 277.832,    3.397928,-10.301422,
 2024-Sep-08 00:00, 2460561.500000000, , ,   278.79483,  -30.86468,  10.71435,  1.682850,    8.576,  7.018,   2.935384419410,  0.8519923,  2.40677319997890, 22.9224826,  111.9066,/T,   18.5651,   83.383, 277.803,    3.437819,-10.358784,
 2024-Sep-09 00:00, 2460562.500000000, , ,   278.88119,  -30.85334,  11.51599,  1.781097,    8.592,  7.021,   2.935875360652,  0.8482238,  2.42005122282099, 23.0564052,  111.0202,/T,   18.6743,   83.489, 277.769,    3.480626,-10.420742,
 2024-Sep-10 00:00, 2460563.500000000, , ,   278.97373,  -30.84136,  12.30906,  1.877897,    8.608,  7.025,   2.936364122989,  0.8444471,  2.43340472752630, 23.1838792,  110.1386,/T,   18.7783,   83.590, 277.732,    3.526309,-10.487255,
 2024-Sep-11 00:00, 2460564.500000000, , ,   279.07238,  -30.82876,  13.09321,  1.973378,    8.624,  7.028,   2.936850701784,  0.8406625,  2.44683002342992, 23.3050245,  109.2618,/T,   18.8770,   83.687, 277.691,    3.574825,-10.558281,
 2024-Sep-12 00:00, 2460565.500000000, , ,   279.17707,  -30.81554,  13.86814,  2.067668,    8.639,  7.031,   2.937335092414,  0.8368698,  2.46032349457724, 23.4199808,  108.3896,/T,   18.9705,   83.779, 277.647,    3.626134,-10.633775,
 2024-Sep-13 00:00, 2460566.500000000, , ,   279.28773,  -30.80171,  14.63358,  2.160891,    8.655,  7.034,   2.937817290280,  0.8330692,  2.47388161268740, 23.5289132,  107.5220,/T,   19.0589,   83.866, 277.599,    3.680193,-10.713689,
 2024-Sep-14 00:00, 2460567.500000000, , ,   279.40428,  -30.78727,  15.38928,  2.253169,    8.670,  7.037,   2.938297290798,  0.8292606,  2.48750095367901, 23.6320182,  106.6590,/T,   19.1422,   83.949, 277.548,    3.736960,-10.797975,
 2024-Sep-15 00:00, 2460568.500000000, , ,   279.52663,  -30.77224,  16.13509,  2.344626,    8.685,  7.040,   2.938775089401,  0.8254441,  2.50117821681100, 23.7295262,  105.8005,/T,   19.2206,   84.027, 277.493,    3.796393,-10.886584,
 2024-Sep-16 00:00, 2460569.500000000, , ,   279.65472,  -30.75661,  16.87098,  2.435390,    8.699,  7.043,   2.939250681543,  0.8216197,  2.51491024304133, 23.8216956,  104.9464,/T,   19.2940,   84.101, 277.435,    3.858450,-10.979465,
 2024-Sep-17 00:00, 2460570.500000000, , ,   279.78846,  -30.74040,  17.59704,  2.525595,    8.714,  7.045,   2.939724062696,  0.8177875,  2.52869402632583, 23.9087934,  104.0967,/T,   19.3625,   84.172, 277.374,    3.923089,-11.076566,
 2024-Sep-18 00:00, 2460571.500000000, , ,   279.92776,  -30.72359,  18.31352,  2.615379,    8.728,  7.047,   2.940195228352,  0.8139475,  2.54252670999696, 23.9910637,  103.2512,/T,   19.4262,   84.238, 277.310,    3.990269,-11.177839,
 2024-Sep-19 00:00, 2460572.500000000, , ,   280.07257,  -30.70620,  19.02082,  2.704885,    8.742,  7.050,   2.940664174022,  0.8100997,  2.55640556250219, 24.0686898,  102.4099,/T,   19.4852,   84.301, 277.242,    4.059954,-11.283234,
 2024-Sep-20 00:00, 2460573.500000000, , ,   280.22280,  -30.68823,  19.71939,  2.794249,    8.756,  7.051,   2.941130895242,  0.8062442,  2.57032793357556, 24.1417668,  101.5726,/T,   19.5396,   84.359, 277.171,    4.132105,-11.392706,
 2024-Sep-21 00:00, 2460574.500000000, , ,   280.37838,  -30.66968,  20.40964,  2.883597,    8.770,  7.053,   2.941595387569,  0.8023810,  2.58429120043038, 24.2102961,  100.7394,/T,   19.5892,   84.415, 277.097,    4.206688,-11.506212,
 2024-Sep-22 00:00, 2460575.500000000, , ,   280.53926,  -30.65054,  21.09193,  2.973042,    8.783,  7.055,   2.942057646582,  0.7985102,  2.59829271811011, 24.2742042,   99.9101,/T,   19.6344,   84.466, 277.019,    4.283671,-11.623710,
 2024-Sep-23 00:00, 2460576.500000000, , ,   280.70536,  -30.63081,  21.76644,  3.062677,    8.797,  7.057,   2.942517667889,  0.7946317,  2.61232978539736, 24.3333756,   99.0847,/T,   19.6749,   84.515, 276.939,    4.363022,-11.745160,
 2024-Sep-24 00:00, 2460577.500000000, , ,   280.87662,  -30.61050,  22.43327,  3.152584,    8.810,  7.058,   2.942975447121,  0.7907457,  2.62639963006079, 24.3876846,   98.2631,/T,   19.7111,   84.560, 276.856,    4.444711,-11.870523,
 2024-Sep-25 00:00, 2460578.500000000, , ,   281.05298,  -30.58961,  23.09240,  3.242833,    8.823,  7.059,   2.943430979933,  0.7868522,  2.64049941013030, 24.4370182,   97.4453,/T,   19.7427,   84.602, 276.770,    4.528706,-11.999761,
 2024-Sep-26 00:00, 2460579.500000000, , ,   281.23438,  -30.56812,  23.74375,  3.333485,    8.836,  7.061,   2.943884262009,  0.7829512,  2.65462622471897, 24.4812863,   96.6312,/T,   19.7701,   84.640, 276.680,    4.614979,-12.132832,
